[
  {
    "OBJECT_NAME": "STARLINK-11745 [DTC]",
    "OBJECT_ID": "25127G",
    "EPOCH": "2025-11-11T01:12:58.121280",
    "MEAN_MOTION": 15.70938771,
    "ECCENTRICITY": 0.0001206,
    "INCLINATION": 43.0004,
    "RA_OF_ASC_NODE": 79.6434,
    "ARG_OF_PERICENTER": 1.5957,
    "MEAN_ANOMALY": 358.4914,
    "EPHEMERIS_TYPE": 0,
    "CLASSIFICATION_TYPE": "U",
    "NORAD_CAT_ID": 64376,
    "ELEMENT_SET_NO": 999,
    "REV_AT_EPOCH": 2484,
    "BSTAR": 0.0030358000000000004,
    "MEAN_MOTION_DOT": 0.00410676,
    "MEAN_MOTION_DDOT": 0.0,
    "TLE_LINE1": "1 64376U 25127G   25315.05067270  .00410676  00000+0  30358-2 0  9990",
    "TLE_LINE2": "2 64376  43.0004  79.6434 0001206   1.5957 358.4914 15.70938771 24848",
    "COMMENT": "Grouped by shell and plane from TLE"
  },
  {
    "OBJECT_NAME": "STARLINK-11742 [DTC]",
    "OBJECT_ID": "25127H",
    "EPOCH": "2025-11-11T01:35:54.149280",
    "MEAN_MOTION": 15.70992953,
    "ECCENTRICITY": 0.0001315,
    "INCLINATION": 42.9993,
    "RA_OF_ASC_NODE": 79.7725,
    "ARG_OF_PERICENTER": 323.1324,
    "MEAN_ANOMALY": 36.9453,
    "EPHEMERIS_TYPE": 0,
    "CLASSIFICATION_TYPE": "U",
    "NORAD_CAT_ID": 64377,
    "ELEMENT_SET_NO": 999,
    "REV_AT_EPOCH": 2484,
    "BSTAR": 0.0023313,
    "MEAN_MOTION_DOT": 0.00312205,
    "MEAN_MOTION_DDOT": 0.0,
    "TLE_LINE1": "1 64377U 25127H   25315.06659895  .00312205  00000+0  23313-2 0  9994",
    "TLE_LINE2": "2 64377  42.9993  79.7725 0001315 323.1324  36.9453 15.70992953 24848",
    "COMMENT": "Grouped by shell and plane from TLE"
  },
  {
    "OBJECT_NAME": "STARLINK-11743 [DTC]",
    "OBJECT_ID": "25127K",
    "EPOCH": "2025-11-11T08:00:03.000384",
    "MEAN_MOTION": 15.70783561,
    "ECCENTRICITY": 0.0001561,
    "INCLINATION": 42.9998,
    "RA_OF_ASC_NODE": 78.3139,
    "ARG_OF_PERICENTER": 261.3913,
    "MEAN_ANOMALY": 109.02,
    "EPHEMERIS_TYPE": 0,
    "CLASSIFICATION_TYPE": "U",
    "NORAD_CAT_ID": 64379,
    "ELEMENT_SET_NO": 999,
    "REV_AT_EPOCH": 585,
    "BSTAR": 0.00058427,
    "MEAN_MOTION_DOT": 0.00075022,
    "MEAN_MOTION_DDOT": 0.0,
    "TLE_LINE1": "1 64379U 25127K   25315.33336806  .00075022  00000+0  58427-3 0  9998",
    "TLE_LINE2": "2 64379  42.9998  78.3139 0001561 261.3913 109.0200 15.70783561  5854",
    "COMMENT": "Grouped by shell and plane from TLE"
  },
  {
    "OBJECT_NAME": "STARLINK-11744 [DTC]",
    "OBJECT_ID": "25127L",
    "EPOCH": "2025-11-11T01:28:15.511296",
    "MEAN_MOTION": 15.70913217,
    "ECCENTRICITY": 0.0001168,
    "INCLINATION": 42.9996,
    "RA_OF_ASC_NODE": 79.7293,
    "ARG_OF_PERICENTER": 8.0788,
    "MEAN_ANOMALY": 352.0098,
    "EPHEMERIS_TYPE": 0,
    "CLASSIFICATION_TYPE": "U",
    "NORAD_CAT_ID": 64380,
    "ELEMENT_SET_NO": 999,
    "REV_AT_EPOCH": 2484,
    "BSTAR": 0.0019195000000000002,
    "MEAN_MOTION_DOT": 0.00254318,
    "MEAN_MOTION_DDOT": 0.0,
    "TLE_LINE1": "1 64380U 25127L   25315.06129064  .00254318  00000+0  19195-2 0  9991",
    "TLE_LINE2": "2 64380  42.9996  79.7293 0001168   8.0788 352.0098 15.70913217 24847",
    "COMMENT": "Grouped by shell and plane from TLE"
  },
  {
    "OBJECT_NAME": "STARLINK-35552",
    "OBJECT_ID": "25235A",
    "EPOCH": "2025-11-11T08:00:03.000384",
    "MEAN_MOTION": 15.73211555,
    "ECCENTRICITY": 0.0002624,
    "INCLINATION": 53.1558,
    "RA_OF_ASC_NODE": 76.5299,
    "ARG_OF_PERICENTER": 19.7293,
    "MEAN_ANOMALY": 173.5755,
    "EPHEMERIS_TYPE": 0,
    "CLASSIFICATION_TYPE": "U",
    "NORAD_CAT_ID": 66058,
    "ELEMENT_SET_NO": 999,
    "REV_AT_EPOCH": 482,
    "BSTAR": 0.0013539000000000001,
    "MEAN_MOTION_DOT": 0.00193962,
    "MEAN_MOTION_DDOT": 0.0,
    "TLE_LINE1": "1 66058U 25235A   25315.33336806  .00193962  00000+0  13539-2 0  9992",
    "TLE_LINE2": "2 66058  53.1558  76.5299 0002624  19.7293 173.5755 15.73211555  4829",
    "COMMENT": "Grouped by shell and plane from TLE"
  },
  {
    "OBJECT_NAME": "STARLINK-35363",
    "OBJECT_ID": "25243B",
    "EPOCH": "2025-11-11T06:00:02.000160",
    "MEAN_MOTION": 15.741133,
    "ECCENTRICITY": 0.0001165,
    "INCLINATION": 53.1579,
    "RA_OF_ASC_NODE": 78.4411,
    "ARG_OF_PERICENTER": 91.8701,
    "MEAN_ANOMALY": 48.8814,
    "EPHEMERIS_TYPE": 0,
    "CLASSIFICATION_TYPE": "U",
    "NORAD_CAT_ID": 66178,
    "ELEMENT_SET_NO": 999,
    "REV_AT_EPOCH": 358,
    "BSTAR": 0.00053428,
    "MEAN_MOTION_DOT": 0.00078088,
    "MEAN_MOTION_DDOT": 0.0,
    "TLE_LINE1": "1 66178U 25243B   25315.25002315  .00078088  00000+0  53428-3 0  9993",
    "TLE_LINE2": "2 66178  53.1579  78.4411 0001165  91.8701  48.8814 15.74113300  3588",
    "COMMENT": "Grouped by shell and plane from TLE"
  },
  {
    "OBJECT_NAME": "STARLINK-35346",
    "OBJECT_ID": "25243C",
    "EPOCH": "2025-11-11T06:00:02.000160",
    "MEAN_MOTION": 15.7417004,
    "ECCENTRICITY": 0.0001186,
    "INCLINATION": 53.1582,
    "RA_OF_ASC_NODE": 78.4451,
    "ARG_OF_PERICENTER": 70.2013,
    "MEAN_ANOMALY": 68.6211,
    "EPHEMERIS_TYPE": 0,
    "CLASSIFICATION_TYPE": "U",
    "NORAD_CAT_ID": 66179,
    "ELEMENT_SET_NO": 999,
    "REV_AT_EPOCH": 352,
    "BSTAR": 0.0,
    "MEAN_MOTION_DOT": -0.00028305,
    "MEAN_MOTION_DDOT": 0.0,
    "TLE_LINE1": "1 66179U 25243C   25315.25002315 -.00028305  00000+0 -18977-3 0  9993",
    "TLE_LINE2": "2 66179  53.1582  78.4451 0001186  70.2013  68.6211 15.74170040  3526",
    "COMMENT": "Grouped by shell and plane from TLE"
  },
  {
    "OBJECT_NAME": "STARLINK-35335",
    "OBJECT_ID": "25243D",
    "EPOCH": "2025-11-11T06:00:02.000160",
    "MEAN_MOTION": 15.74133282,
    "ECCENTRICITY": 0.0001105,
    "INCLINATION": 53.1579,
    "RA_OF_ASC_NODE": 78.4501,
    "ARG_OF_PERICENTER": 88.7646,
    "MEAN_ANOMALY": 48.1495,
    "EPHEMERIS_TYPE": 0,
    "CLASSIFICATION_TYPE": "U",
    "NORAD_CAT_ID": 66180,
    "ELEMENT_SET_NO": 999,
    "REV_AT_EPOCH": 352,
    "BSTAR": 0.00032209,
    "MEAN_MOTION_DOT": 0.0004669,
    "MEAN_MOTION_DDOT": 0.0,
    "TLE_LINE1": "1 66180U 25243D   25315.25002315  .00046690  00000+0  32209-3 0  9994",
    "TLE_LINE2": "2 66180  53.1579  78.4501 0001105  88.7646  48.1495 15.74133282  3521",
    "COMMENT": "Grouped by shell and plane from TLE"
  },
  {
    "OBJECT_NAME": "STARLINK-35342",
    "OBJECT_ID": "25243E",
    "EPOCH": "2025-11-11T06:00:02.000160",
    "MEAN_MOTION": 15.74115807,
    "ECCENTRICITY": 0.000129,
    "INCLINATION": 53.1579,
    "RA_OF_ASC_NODE": 78.4542,
    "ARG_OF_PERICENTER": 104.22,
    "MEAN_ANOMALY": 30.7781,
    "EPHEMERIS_TYPE": 0,
    "CLASSIFICATION_TYPE": "U",
    "NORAD_CAT_ID": 66181,
    "ELEMENT_SET_NO": 999,
    "REV_AT_EPOCH": 352,
    "BSTAR": 0.00058143,
    "MEAN_MOTION_DOT": 0.00085117,
    "MEAN_MOTION_DDOT": 0.0,
    "TLE_LINE1": "1 66181U 25243E   25315.25002315  .00085117  00000+0  58143-3 0  9997",
    "TLE_LINE2": "2 66181  53.1579  78.4542 0001290 104.2200  30.7781 15.74115807  3520",
    "COMMENT": "Grouped by shell and plane from TLE"
  },
  {
    "OBJECT_NAME": "STARLINK-35333",
    "OBJECT_ID": "25243F",
    "EPOCH": "2025-11-11T06:00:02.000160",
    "MEAN_MOTION": 15.74138889,
    "ECCENTRICITY": 0.0001044,
    "INCLINATION": 53.158,
    "RA_OF_ASC_NODE": 78.4575,
    "ARG_OF_PERICENTER": 100.6343,
    "MEAN_ANOMALY": 32.4447,
    "EPHEMERIS_TYPE": 0,
    "CLASSIFICATION_TYPE": "U",
    "NORAD_CAT_ID": 66182,
    "ELEMENT_SET_NO": 999,
    "REV_AT_EPOCH": 347,
    "BSTAR": 0.00029160000000000004,
    "MEAN_MOTION_DOT": 0.00042198,
    "MEAN_MOTION_DDOT": 0.0,
    "TLE_LINE1": "1 66182U 25243F   25315.25002315  .00042198  00000+0  29160-3 0  9997",
    "TLE_LINE2": "2 66182  53.1580  78.4575 0001044 100.6343  32.4447 15.74138889  3471",
    "COMMENT": "Grouped by shell and plane from TLE"
  },
  {
    "OBJECT_NAME": "STARLINK-35310",
    "OBJECT_ID": "25243G",
    "EPOCH": "2025-11-11T06:00:02.000160",
    "MEAN_MOTION": 15.7413212,
    "ECCENTRICITY": 0.0001199,
    "INCLINATION": 53.1578,
    "RA_OF_ASC_NODE": 78.4626,
    "ARG_OF_PERICENTER": 107.1553,
    "MEAN_ANOMALY": 24.0077,
    "EPHEMERIS_TYPE": 0,
    "CLASSIFICATION_TYPE": "U",
    "NORAD_CAT_ID": 66183,
    "ELEMENT_SET_NO": 999,
    "REV_AT_EPOCH": 358,
    "BSTAR": 0.00035618,
    "MEAN_MOTION_DOT": 0.00051726,
    "MEAN_MOTION_DDOT": 0.0,
    "TLE_LINE1": "1 66183U 25243G   25315.25002315  .00051726  00000+0  35618-3 0  9990",
    "TLE_LINE2": "2 66183  53.1578  78.4626 0001199 107.1553  24.0077 15.74132120  3582",
    "COMMENT": "Grouped by shell and plane from TLE"
  },
  {
    "OBJECT_NAME": "STARLINK-35317",
    "OBJECT_ID": "25243H",
    "EPOCH": "2025-11-11T06:00:02.000160",
    "MEAN_MOTION": 15.74142403,
    "ECCENTRICITY": 0.0001145,
    "INCLINATION": 53.1574,
    "RA_OF_ASC_NODE": 78.5023,
    "ARG_OF_PERICENTER": 91.6776,
    "MEAN_ANOMALY": 20.316,
    "EPHEMERIS_TYPE": 0,
    "CLASSIFICATION_TYPE": "U",
    "NORAD_CAT_ID": 66184,
    "ELEMENT_SET_NO": 999,
    "REV_AT_EPOCH": 352,
    "BSTAR": 6.3866e-05,
    "MEAN_MOTION_DOT": 8.715e-05,
    "MEAN_MOTION_DDOT": 0.0,
    "TLE_LINE1": "1 66184U 25243H   25315.25002315  .00008715  00000+0  63866-4 0  9998",
    "TLE_LINE2": "2 66184  53.1574  78.5023 0001145  91.6776  20.3160 15.74142403  3527",
    "COMMENT": "Grouped by shell and plane from TLE"
  },
  {
    "OBJECT_NAME": "STARLINK-35377",
    "OBJECT_ID": "25243J",
    "EPOCH": "2025-11-11T06:00:02.000160",
    "MEAN_MOTION": 15.741667,
    "ECCENTRICITY": 0.0001095,
    "INCLINATION": 53.1574,
    "RA_OF_ASC_NODE": 78.5103,
    "ARG_OF_PERICENTER": 79.0155,
    "MEAN_ANOMALY": 29.1214,
    "EPHEMERIS_TYPE": 0,
    "CLASSIFICATION_TYPE": "U",
    "NORAD_CAT_ID": 66185,
    "ELEMENT_SET_NO": 999,
    "REV_AT_EPOCH": 358,
    "BSTAR": 0.0,
    "MEAN_MOTION_DOT": -0.00033697,
    "MEAN_MOTION_DDOT": 0.0,
    "TLE_LINE1": "1 66185U 25243J   25315.25002315 -.00033697  00000+0 -22692-3 0  9999",
    "TLE_LINE2": "2 66185  53.1574  78.5103 0001095  79.0155  29.1214 15.74166700  3581",
    "COMMENT": "Grouped by shell and plane from TLE"
  }
]